{
  "type": "FeatureCollection",
  "features": [
    {
      "type": "Feature",
      "properties": {
        "norad_id": 39160,
        "name": "VNREDSAT 1",
        "group": "resource",
        "lat": -15.603194973662914,
        "lon": 36.68286815877813,
        "alt_km": 682.3110200371511,
        "timestamp": "2025-12-04T21:36:15.531306+00:00",
        "meta_object_name": "VNREDSAT 1",
        "meta_object_id": "2013-021B",
        "meta_epoch": "2025-12-04T15:07:07.733568",
        "meta_mean_motion": 14.64904167,
        "meta_eccentricity": 0.00013524,
        "meta_inclination": 97.9385,
        "meta_ra_of_asc_node": 34.1888,
        "meta_arg_of_pericenter": 83.8741,
        "meta_mean_anomaly": 276.2616,
        "meta_ephemeris_type": 0,
        "meta_classification_type": "U",
        "meta_norad_cat_id": 39160,
        "meta_element_set_no": 999,
        "meta_rev_at_epoch": 67180,
        "meta_bstar": 0.00026652547,
        "meta_mean_motion_dot": 1.379e-05,
        "meta_mean_motion_ddot": 0,
        "tle_line1": "1 39160U 13021B   25338.62995062  .00001379  00000+0  26653-3 0  9990",
        "tle_line2": "2 39160  97.9385  34.1888 0001352  83.8741 276.2616 14.64904167671800"
      },
      "geometry": {
        "type": "Point",
        "coordinates": [
          36.68286815877813,
          -15.603194973662914
        ]
      }
    },
    {
      "type": "Feature",
      "properties": {
        "norad_id": 39227,
        "name": "ARIRANG-5 (KOMPSAT-5)",
        "group": "resource",
        "lat": 26.73356853722367,
        "lon": 159.45218372173684,
        "alt_km": 550.245759985105,
        "timestamp": "2025-12-04T21:36:15.531317+00:00",
        "meta_object_name": "ARIRANG-5 (KOMPSAT-5)",
        "meta_object_id": "2013-042A",
        "meta_epoch": "2025-12-04T15:05:59.836992",
        "meta_mean_motion": 15.04511177,
        "meta_eccentricity": 0.00041856,
        "meta_inclination": 97.6152,
        "meta_ra_of_asc_node": 163.0491,
        "meta_arg_of_pericenter": 79.4034,
        "meta_mean_anomaly": 280.7663,
        "meta_ephemeris_type": 0,
        "meta_classification_type": "U",
        "meta_norad_cat_id": 39227,
        "meta_element_set_no": 999,
        "meta_rev_at_epoch": 67460,
        "meta_bstar": 0.0002428846,
        "meta_mean_motion_dot": 3.341e-05,
        "meta_mean_motion_ddot": 0,
        "tle_line1": "1 39227U 13042A   25338.62916478  .00003341  00000+0  24288-3 0  9994",
        "tle_line2": "2 39227  97.6152 163.0491 0004185  79.4034 280.7663 15.04511177674601"
      },
      "geometry": {
        "type": "Point",
        "coordinates": [
          159.45218372173684,
          26.73356853722367
        ]
      }
    },
    {
      "type": "Feature",
      "properties": {
        "norad_id": 39418,
        "name": "SKYSAT-A",
        "group": "resource",
        "lat": -21.35997839013141,
        "lon": -153.57090772399934,
        "alt_km": 530.7978516620233,
        "timestamp": "2025-12-04T21:36:15.531327+00:00",
        "meta_object_name": "SKYSAT-A",
        "meta_object_id": "2013-066C",
        "meta_epoch": "2025-12-04T14:21:31.071456",
        "meta_mean_motion": 15.11511267,
        "meta_eccentricity": 0.00203957,
        "meta_inclination": 97.4121,
        "meta_ra_of_asc_node": 29.0547,
        "meta_arg_of_pericenter": 266.6601,
        "meta_mean_anomaly": 93.2297,
        "meta_ephemeris_type": 0,
        "meta_classification_type": "U",
        "meta_norad_cat_id": 39418,
        "meta_element_set_no": 999,
        "meta_rev_at_epoch": 65907,
        "meta_bstar": 0.00045062807,
        "meta_mean_motion_dot": 7.609e-05,
        "meta_mean_motion_ddot": 0,
        "tle_line1": "1 39418U 13066C   25338.59827629  .00007609  00000+0  45063-3 0  9992",
        "tle_line2": "2 39418  97.4121  29.0547 0020395 266.6601  93.2297 15.11511267659073"
      },
      "geometry": {
        "type": "Point",
        "coordinates": [
          -153.57090772399934,
          -21.35997839013141
        ]
      }
    },
    {
      "type": "Feature",
      "properties": {
        "norad_id": 39419,
        "name": "DUBAISAT-2",
        "group": "resource",
        "lat": 73.88874309287519,
        "lon": -57.362869130159815,
        "alt_km": 533.8877565887233,
        "timestamp": "2025-12-04T21:36:15.531337+00:00",
        "meta_object_name": "DUBAISAT-2",
        "meta_object_id": "2013-066D",
        "meta_epoch": "2025-12-04T14:54:05.203584",
        "meta_mean_motion": 15.08233485,
        "meta_eccentricity": 0.00113188,
        "meta_inclination": 97.4438,
        "meta_ra_of_asc_node": 329.2799,
        "meta_arg_of_pericenter": 351.3378,
        "meta_mean_anomaly": 8.7654,
        "meta_ephemeris_type": 0,
        "meta_classification_type": "U",
        "meta_norad_cat_id": 39419,
        "meta_element_set_no": 999,
        "meta_rev_at_epoch": 65704,
        "meta_bstar": 0.00060328969,
        "meta_mean_motion_dot": 9.298e-05,
        "meta_mean_motion_ddot": 0,
        "tle_line1": "1 39419U 13066D   25338.62089356  .00009298  00000+0  60329-3 0  9992",
        "tle_line2": "2 39419  97.4438 329.2799 0011318 351.3378   8.7654 15.08233485657049"
      },
      "geometry": {
        "type": "Point",
        "coordinates": [
          -57.362869130159815,
          73.88874309287519
        ]
      }
    },
    {
      "type": "Feature",
      "properties": {
        "norad_id": 39574,
        "name": "GPM-CORE",
        "group": "resource",
        "lat": -42.610930615948185,
        "lon": 84.40550685312697,
        "alt_km": 430.82066519480304,
        "timestamp": "2025-12-04T21:36:15.531347+00:00",
        "meta_object_name": "GPM-CORE",
        "meta_object_id": "2014-009C",
        "meta_epoch": "2025-12-04T14:24:21.541248",
        "meta_mean_motion": 15.45241525,
        "meta_eccentricity": 0.0010525,
        "meta_inclination": 64.9752,
        "meta_ra_of_asc_node": 239.9589,
        "meta_arg_of_pericenter": 268.8894,
        "meta_mean_anomaly": 91.1041,
        "meta_ephemeris_type": 0,
        "meta_classification_type": "U",
        "meta_norad_cat_id": 39574,
        "meta_element_set_no": 999,
        "meta_rev_at_epoch": 66775,
        "meta_bstar": 0.00061852852,
        "meta_mean_motion_dot": 0.00029502,
        "meta_mean_motion_ddot": 0,
        "tle_line1": "1 39574U 14009C   25338.60024932  .00029502  00000+0  61853-3 0  9992",
        "tle_line2": "2 39574  64.9752 239.9589 0010525 268.8894  91.1041 15.45241525667757"
      },
      "geometry": {
        "type": "Point",
        "coordinates": [
          84.40550685312697,
          -42.610930615948185
        ]
      }
    },
    {
      "type": "Feature",
      "properties": {
        "norad_id": 39634,
        "name": "SENTINEL-1A",
        "group": "resource",
        "lat": 6.036520890134501,
        "lon": -16.614227253759434,
        "alt_km": 697.8029617105394,
        "timestamp": "2025-12-04T21:36:15.531357+00:00",
        "meta_object_name": "SENTINEL-1A",
        "meta_object_id": "2014-016A",
        "meta_epoch": "2025-12-04T14:59:36.952800",
        "meta_mean_motion": 14.59201436,
        "meta_eccentricity": 0.00012463,
        "meta_inclination": 98.1805,
        "meta_ra_of_asc_node": 343.986,
        "meta_arg_of_pericenter": 89.6595,
        "meta_mean_anomaly": 270.4747,
        "meta_ephemeris_type": 0,
        "meta_classification_type": "U",
        "meta_norad_cat_id": 39634,
        "meta_element_set_no": 999,
        "meta_rev_at_epoch": 62164,
        "meta_bstar": 3.594146e-05,
        "meta_mean_motion_dot": 1.24e-06,
        "meta_mean_motion_ddot": 0,
        "tle_line1": "1 39634U 14016A   25338.62473325  .00000124  00000+0  35941-4 0  9992",
        "tle_line2": "2 39634  98.1805 343.9860 0001246  89.6595 270.4747 14.59201436621641"
      },
      "geometry": {
        "type": "Point",
        "coordinates": [
          -16.614227253759434,
          6.036520890134501
        ]
      }
    },
    {
      "type": "Feature",
      "properties": {
        "norad_id": 39731,
        "name": "KAZEOSAT 1",
        "group": "resource",
        "lat": 73.94406508561057,
        "lon": -98.35523410492254,
        "alt_km": 743.8795603915178,
        "timestamp": "2025-12-04T21:36:15.531367+00:00",
        "meta_object_name": "KAZEOSAT 1",
        "meta_object_id": "2014-024A",
        "meta_epoch": "2025-12-04T16:07:45.435360",
        "meta_mean_motion": 14.42055466,
        "meta_eccentricity": 0.00010614,
        "meta_inclination": 98.3443,
        "meta_ra_of_asc_node": 50.7602,
        "meta_arg_of_pericenter": 99.2999,
        "meta_mean_anomaly": 260.8311,
        "meta_ephemeris_type": 0,
        "meta_classification_type": "U",
        "meta_norad_cat_id": 39731,
        "meta_element_set_no": 999,
        "meta_rev_at_epoch": 61052,
        "meta_bstar": 0.0001678138,
        "meta_mean_motion_dot": 5.08e-06,
        "meta_mean_motion_ddot": 0,
        "tle_line1": "1 39731U 14024A   25338.67205365  .00000508  00000+0  16781-3 0  9997",
        "tle_line2": "2 39731  98.3443  50.7602 0001061  99.2999 260.8311 14.42055466610523"
      },
      "geometry": {
        "type": "Point",
        "coordinates": [
          -98.35523410492254,
          73.94406508561057
        ]
      }
    }
  ]
}